0 COSMOS 374 DEB *
1 17725U 70089DC  13281.25621649  .00000436  00000-0  20051-3 0  1420
2 17725 062.7462 135.8222 0801278 197.4168 287.6654 13.27103079358092
0 COSMOS 374 DEB *
1 17725U 70089DC  13284.19398414  .00000802  00000-0  33338-3 0  1437
2 17725 062.7462 128.2504 0801024 197.8158 283.0746 13.27107605358487
0 COSMOS 374 DEB *
1 17725U 70089DC  13287.20893785  .00001040  00000-0  41995-3 0  1447
2 17725 062.7461 120.4798 0800755 198.2275 287.2884 13.27111436358880
0 COSMOS 374 DEB *
1 17725U 70089DC  13290.06828855  .00001042  00000-0  42118-3 0  1452
2 17725 062.7465 113.1096 0800484 198.6186 268.1454 13.27121671359264
0 COSMOS 374 DEB *
1 17725U 70089DC  13292.10464329  .00001514  00000-0  59311-3 0  1469
2 17725 062.7468 107.8610 0800312 198.8945 277.1276 13.27123566359531
0 COSMOS 374 DEB *
1 17725U 70089DC  13295.04282587  .00002114  00000-0  81258-3 0  1472
2 17725 062.7482 100.2895 0799861 199.3005 274.7729 13.27135810359922
